OBJECT_NAME,OBJECT_ID,EPOCH,MEAN_MOTION,ECCENTRICITY,INCLINATION,RA_OF_ASC_NODE,ARG_OF_PERICENTER,MEAN_ANOMALY,EPHEMERIS_TYPE,CLASSIFICATION_TYPE,NORAD_CAT_ID,ELEMENT_SET_NO,REV_AT_EPOCH,BSTAR,MEAN_MOTION_DOT,MEAN_MOTION_DDOT
CZ-4B R/B,2006-046C,2026-06-04T03:11:23.895744,15.17683201,.00316905,97.5456,199.7807,330.1583,29.7842,0,U,29507,999,7315,.25994175E-3,.5234E-4,0
CZ-2C R/B,2007-010B,2026-06-03T07:44:20.381568,14.20272773,.0059778,98.4088,263.3526,46.1443,314.4652,0,U,31114,999,99187,.73245508E-4,.119E-5,0
COSMO-SKYMED 1,2007-023A,2026-06-04T20:04:54.448320,14.97046420,.0001501,97.8862,347.5897,81.3870,278.7521,0,U,31598,999,2794,.23199E-3,.2613E-4,0
COSMOS 2428,2007-029A,2026-06-04T16:24:23.682816,14.12931154,.0007338,70.9380,20.7314,158.9889,201.1535,0,U,31792,999,97638,-.72666E-4,-.183E-5,0
SL-16 R/B,2007-029B,2026-06-03T14:31:18.430752,14.14847422,.00023145,70.9758,351.7816,257.9016,159.5807,0,U,31793,999,97752,.10774096E-3,.16E-5,0
KORONAS-FOTON,2009-003A,2026-06-04T17:06:19.371744,15.45455667,.001029,82.4288,185.2698,190.0454,170.0591,0,U,33504,999,95917,.23794E-3,.11452E-3,0
CZ-2C R/B,2011-030B,2026-06-04T05:08:43.192320,14.81438717,.00537963,97.8650,110.8357,69.2961,26.3935,0,U,37731,999,80290,.20182364E-3,.1565E-4,0
H-2A R/B,2012-025E,2026-06-03T23:27:54.868896,14.95639537,.00447139,98.4819,129.0360,31.6803,328.7092,0,U,38341,999,76111,.26873077E-3,.2976E-4,0
SHIJIAN-16 (SJ-16),2013-057A,2026-06-04T20:08:33.139680,14.92582400,.0016957,74.9731,20.0713,259.1364,100.7916,0,U,39358,999,68450,.14062E-3,.1421E-4,0
SL-4 R/B,2014-021B,2026-06-03T15:31:29.208576,15.41642817,.00917058,51.6063,277.0919,56.7885,304.1851,0,U,39679,999,66952,.25569107E-3,.12294E-3,0
ALOS-2,2014-029A,2026-06-04T13:25:35.571072,14.79487434,.0001603,97.9217,252.9044,94.8920,265.2475,0,U,39766,999,64971,.24177E-3,.1755E-4,0
YAOGAN-29,2015-069A,2026-06-04T19:56:48.181344,14.83073745,.0002963,98.0027,184.4440,74.2290,285.9250,0,U,41038,999,56879,.60316E-4,.437E-5,0
ASTRO-H (HITOMI),2016-012A,2026-06-02T07:09:10.946304,15.10444105,.00094747,30.9972,170.3433,103.6260,256.5434,0,U,41337,999,56503,.13655145E-3,.2399E-4,0
HXMT (HUIYAN),2017-034A,2026-06-04T18:25:20.661600,15.18378778,.0030238,43.0139,252.1936,65.0432,295.3553,0,U,42758,999,49577,.26918E-3,.5458E-4,0
SAOCOM 1A,2018-076A,2026-06-04T20:22:45.041952,14.82163790,.000152,97.8880,342.7768,75.9554,284.1828,0,U,43641,999,41427,.53022E-6,-.48E-6,0
H-2A R/B,2018-084L,2026-06-04T05:44:20.031936,15.44635255,.0024562,98.8590,31.3044,83.7841,276.6200,0,U,43682,999,41912,.42717E-3,.20027E-3,0
SAOCOM 1B,2020-059A,2026-06-04T19:30:33.289920,14.82161538,.0001477,97.8884,341.8355,81.3570,278.7810,0,U,46265,999,31165,.91558E-4,.677E-5,0
CSS (TIANHE),2021-035A,2026-06-04T16:33:02.349792,15.60257338,.0009579,41.4693,38.0294,342.1781,17.8720,0,U,48274,999,29121,.29392E-3,.24475E-3,0
COSMOS 2550,2021-056A,2026-06-03T06:21:27.029088,15.33822322,.00082078,67.1411,142.0174,269.6582,90.3631,0,U,48865,999,27658,.18579141E-3,.5924E-4,0
CZ-2C R/B,2022-058K,2026-06-02T17:08:57.081984,15.60823058,.00334067,50.1851,238.7695,206.7998,153.1250,0,U,52794,999,22338,.46803304E-3,.40633E-3,0
CZ-2C R/B,2022-132E,2026-06-04T02:13:25.108608,15.69970737,.00171478,97.2904,161.5470,124.5379,235.7505,0,U,54039,999,20389,.46321851E-3,.56126E-3,0
GSLV R/B,2022-138AN,2026-06-04T00:25:56.720640,14.97194298,.00206476,87.3794,137.4067,190.2739,169.8074,0,U,54149,999,19684,.25540066E-3,.2993E-4,0
XRISM,2023-137A,2026-06-02T06:36:16.681248,15.12327778,.00076942,31.0020,96.1840,175.1081,184.9634,0,U,57800,999,15060,.31044403E-3,.5615E-4,0
ACS3,2024-077B,2026-06-03T15:18:19.296576,13.93351359,.0041316,97.1690,76.4520,63.8137,296.7269,0,U,59588,999,10615,.31291E-1,.41379E-3,0
SZ-21 MODULE,2025-246C,2026-06-01T22:35:51.528768,15.75039202,.00071014,41.4749,42.1841,261.1371,98.8669,0,U,66515,999,3133,.30884922E-3,.47427E-3,0
